{"type": "FeatureCollection", "features": [ {"type": "Feature", "properties": {"norad_id": 34141, "name": "COSMOS 2251 DEB", "group": "cosmos-2251-debris", "lat": -29.376872407585687, "lon": -125.73013375491132, "alt_km": 726.0983772165573, "timestamp": "2025-12-04T03:47:54.935909+00:00", "meta": {"OBJECT_NAME": "COSMOS 2251 DEB", "OBJECT_ID": "1993-036LN", "EPOCH": "2025-12-03T05:34:20.592192", "MEAN_MOTION": 14.49052952, "ECCENTRICITY": 0.0048411, "INCLINATION": 74.0118, "RA_OF_ASC_NODE": 46.72, "ARG_OF_PERICENTER": 135.9623, "MEAN_ANOMALY": 284.9718, "EPHEMERIS_TYPE": 0, "CLASSIFICATION_TYPE": "U", "NORAD_CAT_ID": 34141, "ELEMENT_SET_NO": 999, "REV_AT_EPOCH": 87556, "BSTAR": 0.0022965, "MEAN_MOTION_DOT": 8.833e-05, "MEAN_MOTION_DDOT": 0}, "tle": {"line1": "1 34141U 93036LN  25337.23218278  .00008833  00000+0  22965-2 0  9994", "line2": "2 34141  74.0118  46.7200 0048411 135.9623 284.9718 14.49052952875563"}}, "geometry": {"type": "Point", "coordinates": [-125.73013375491132, -29.376872407585687]}}, {"type": "Feature", "properties": {"norad_id": 34270, "name": "COSMOS 2251 DEB", "group": "cosmos-2251-debris", "lat": 32.070028768433346, "lon": -26.486648261029647, "alt_km": 671.4964669874989, "timestamp": "2025-12-04T03:47:54.935919+00:00", "meta": {"OBJECT_NAME": "COSMOS 2251 DEB", "OBJECT_ID": "1993-036LQ", "EPOCH": "2025-12-03T09:37:07.990752", "MEAN_MOTION": 14.65081948, "ECCENTRICITY": 0.0047848, "INCLINATION": 74.0113, "RA_OF_ASC_NODE": 324.6227, "ARG_OF_PERICENTER": 120.2849, "MEAN_ANOMALY": 240.3067, "EPHEMERIS_TYPE": 0, "CLASSIFICATION_TYPE": "U", "NORAD_CAT_ID": 34270, "ELEMENT_SET_NO": 999, "REV_AT_EPOCH": 88959, "BSTAR": 0.00070844, "MEAN_MOTION_DOT": 3.838e-05, "MEAN_MOTION_DDOT": 0}, "tle": {"line1": "1 34270U 93036LQ  25337.40078693  .00003838  00000+0  70844-3 0  9991", "line2": "2 34270  74.0113 324.6227 0047848 120.2849 240.3067 14.65081948889594"}}, "geometry": {"type": "Point", "coordinates": [-26.486648261029647, 32.070028768433346]}}, {"type": "Feature", "properties": {"norad_id": 34271, "name": "COSMOS 2251 DEB", "group": "cosmos-2251-debris", "lat": 9.218029931002475, "lon": 33.33215623667618, "alt_km": 663.5907378492129, "timestamp": "2025-12-04T03:47:54.935929+00:00", "meta": {"OBJECT_NAME": "COSMOS 2251 DEB", "OBJECT_ID": "1993-036LR", "EPOCH": "2025-12-03T03:13:29.779680", "MEAN_MOTION": 14.70407197, "ECCENTRICITY": 0.0019792, "INCLINATION": 74.0207, "RA_OF_ASC_NODE": 217.985, "ARG_OF_PERICENTER": 273.2081, "MEAN_ANOMALY": 239.5046, "EPHEMERIS_TYPE": 0, "CLASSIFICATION_TYPE": "U", "NORAD_CAT_ID": 34271, "ELEMENT_SET_NO": 999, "REV_AT_EPOCH": 88093, "BSTAR": 0.0025987006, "MEAN_MOTION_DOT": 0.00015783, "MEAN_MOTION_DDOT": 0}, "tle": {"line1": "1 34271U 93036LR  25337.13437245  .00015783  00000+0  25987-2 0  9993", "line2": "2 34271  74.0207 217.9850 0019792 273.2081 239.5046 14.70407197880939"}}, "geometry": {"type": "Point", "coordinates": [33.33215623667618, 9.218029931002475]}}, {"type": "Feature", "properties": {"norad_id": 34273, "name": "COSMOS 2251 DEB", "group": "cosmos-2251-debris", "lat": 54.78764013831386, "lon": -100.09820405956616, "alt_km": 687.1396281165325, "timestamp": "2025-12-04T03:47:54.935939+00:00", "meta": {"OBJECT_NAME": "COSMOS 2251 DEB", "OBJECT_ID": "1993-036LT", "EPOCH": "2025-12-03T01:29:53.353248", "MEAN_MOTION": 14.61061856, "ECCENTRICITY": 0.00145346, "INCLINATION": 74.0346, "RA_OF_ASC_NODE": 105.9272, "ARG_OF_PERICENTER": 231.137, "MEAN_ANOMALY": 249.1249, "EPHEMERIS_TYPE": 0, "CLASSIFICATION_TYPE": "U", "NORAD_CAT_ID": 34273, "ELEMENT_SET_NO": 999, "REV_AT_EPOCH": 88480, "BSTAR": 0.0015659056, "MEAN_MOTION_DOT": 7.682e-05, "MEAN_MOTION_DDOT": 0}, "tle": {"line1": "1 34273U 93036LT  25337.06242307  .00007682  00000+0  15659-2 0  9994", "line2": "2 34273  74.0346 105.9272 0014534 231.1370 249.1249 14.61061856884802"}}, "geometry": {"type": "Point", "coordinates": [-100.09820405956616, 54.78764013831386]}}, {"type": "Feature", "properties": {"norad_id": 34274, "name": "COSMOS 2251 DEB", "group": "cosmos-2251-debris", "lat": 73.34346062254438, "lon": -168.3928668740948, "alt_km": 683.3137222818941, "timestamp": "2025-12-04T03:47:54.935949+00:00", "meta": {"OBJECT_NAME": "COSMOS 2251 DEB", "OBJECT_ID": "1993-036LU", "EPOCH": "2025-12-03T07:59:00.236832", "MEAN_MOTION": 14.64574589, "ECCENTRICITY": 0.0022598, "INCLINATION": 74.0043, "RA_OF_ASC_NODE": 86.688, "ARG_OF_PERICENTER": 237.0487, "MEAN_ANOMALY": 186.4234, "EPHEMERIS_TYPE": 0, "CLASSIFICATION_TYPE": "U", "NORAD_CAT_ID": 34274, "ELEMENT_SET_NO": 999, "REV_AT_EPOCH": 88538, "BSTAR": 0.0018658, "MEAN_MOTION_DOT": 9.925e-05, "MEAN_MOTION_DDOT": 0}, "tle": {"line1": "1 34274U 93036LU  25337.33264163  .00009925  00000+0  18658-2 0  9993", "line2": "2 34274  74.0043  86.6880 0022598 237.0487 186.4234 14.64574589885386"}}, "geometry": {"type": "Point", "coordinates": [-168.3928668740948, 73.34346062254438]}}, {"type": "Feature", "properties": {"norad_id": 34276, "name": "COSMOS 2251 DEB", "group": "cosmos-2251-debris", "lat": -73.14595629253937, "lon": -7.326023550822857, "alt_km": 693.9142882128317, "timestamp": "2025-12-04T03:47:54.935958+00:00", "meta": {"OBJECT_NAME": "COSMOS 2251 DEB", "OBJECT_ID": "1993-036LW", "EPOCH": "2025-12-02T18:13:28.921728", "MEAN_MOTION": 14.571029, "ECCENTRICITY": 0.00228161, "INCLINATION": 74.0225, "RA_OF_ASC_NODE": 104.2932, "ARG_OF_PERICENTER": 251.6147, "MEAN_ANOMALY": 237.7712, "EPHEMERIS_TYPE": 0, "CLASSIFICATION_TYPE": "U", "NORAD_CAT_ID": 34276, "ELEMENT_SET_NO": 999, "REV_AT_EPOCH": 88447, "BSTAR": 0.0011955776, "MEAN_MOTION_DOT": 5.381e-05, "MEAN_MOTION_DDOT": 0}, "tle": {"line1": "1 34276U 93036LW  25336.75936252  .00005381  00000+0  11956-2 0  9991", "line2": "2 34276  74.0225 104.2932 0022816 251.6147 237.7712 14.57102900884479"}}, "geometry": {"type": "Point", "coordinates": [-7.326023550822857, -73.14595629253937]}}, {"type": "Feature", "properties": {"norad_id": 34297, "name": "COSMOS 2251 DEB", "group": "cosmos-2251-debris", "lat": -10.855257572870258, "lon": 123.1350590283568, "alt_km": 785.6631081577461, "timestamp": "2025-12-04T03:47:54.935968+00:00", "meta": {"OBJECT_NAME": "COSMOS 2251 DEB", "OBJECT_ID": "1993-036MT", "EPOCH": "2025-12-03T09:17:05.362368", "MEAN_MOTION": 14.36615048, "ECCENTRICITY": 0.0016856, "INCLINATION": 74.0482, "RA_OF_ASC_NODE": 301.4069, "ARG_OF_PERICENTER": 12.1547, "MEAN_ANOMALY": 151.0596, "EPHEMERIS_TYPE": 0, "CLASSIFICATION_TYPE": "U", "NORAD_CAT_ID": 34297, "ELEMENT_SET_NO": 999, "REV_AT_EPOCH": 87930, "BSTAR": 0.00022088, "MEAN_MOTION_DOT": 6.25e-06, "MEAN_MOTION_DDOT": 0}, "tle": {"line1": "1 34297U 93036MT  25337.38686762  .00000625  00000+0  22088-3 0  9997", "line2": "2 34297  74.0482 301.4069 0016856  12.1547 151.0596 14.36615048879303"}}, "geometry": {"type": "Point", "coordinates": [123.1350590283568, -10.855257572870258]}}, {"type": "Feature", "properties": {"norad_id": 34299, "name": "COSMOS 2251 DEB", "group": "cosmos-2251-debris", "lat": 48.22583822387547, "lon": 12.65094610656251, "alt_km": 367.22500143880643, "timestamp": "2025-12-04T03:47:54.935978+00:00", "meta": {"OBJECT_NAME": "COSMOS 2251 DEB", "OBJECT_ID": "1993-036MV", "EPOCH": "2025-12-03T02:56:38.084928", "MEAN_MOTION": 15.5874635, "ECCENTRICITY": 0.00249226, "INCLINATION": 73.9827, "RA_OF_ASC_NODE": 356.2016, "ARG_OF_PERICENTER": 62.6984, "MEAN_ANOMALY": 297.6767, "EPHEMERIS_TYPE": 0, "CLASSIFICATION_TYPE": "U", "NORAD_CAT_ID": 34299, "ELEMENT_SET_NO": 999, "REV_AT_EPOCH": 88860, "BSTAR": 0.0062172696, "MEAN_MOTION_DOT": 0.00517253, "MEAN_MOTION_DDOT": 0}, "tle": {"line1": "1 34299U 93036MV  25337.12266302  .00517253  00000+0  62173-2 0  9993", "line2": "2 34299  73.9827 356.2016 0024922  62.6984 297.6767 15.58746350888600"}}, "geometry": {"type": "Point", "coordinates": [12.65094610656251, 48.22583822387547]}}, {"type": "Feature", "properties": {"norad_id": 34301, "name": "COSMOS 2251 DEB", "group": "cosmos-2251-debris", "lat": 66.27574126528259, "lon": -36.991673484709054, "alt_km": 616.5056676837148, "timestamp": "2025-12-04T03:47:54.935988+00:00", "meta": {"OBJECT_NAME": "COSMOS 2251 DEB", "OBJECT_ID": "1993-036MX", "EPOCH": "2025-12-03T00:29:19.044384", "MEAN_MOTION": 14.837811, "ECCENTRICITY": 0.00124006, "INCLINATION": 74.0064, "RA_OF_ASC_NODE": 186.0071, "ARG_OF_PERICENTER": 244.9578, "MEAN_ANOMALY": 266.9815, "EPHEMERIS_TYPE": 0, "CLASSIFICATION_TYPE": "U", "NORAD_CAT_ID": 34301, "ELEMENT_SET_NO": 999, "REV_AT_EPOCH": 88256, "BSTAR": 0.0031794263, "MEAN_MOTION_DOT": 0.00026438, "MEAN_MOTION_DDOT": 0}, "tle": {"line1": "1 34301U 93036MX  25337.02035931  .00026438  00000+0  31794-2 0  9993", "line2": "2 34301  74.0064 186.0071 0012400 244.9578 266.9815 14.83781100882562"}}, "geometry": {"type": "Point", "coordinates": [-36.991673484709054, 66.27574126528259]}}, {"type": "Feature", "properties": {"norad_id": 34302, "name": "COSMOS 2251 DEB", "group": "cosmos-2251-debris", "lat": 34.49546238591066, "lon": -51.95459531651532, "alt_km": 804.8766930785605, "timestamp": "2025-12-04T03:47:54.935999+00:00", "meta": {"OBJECT_NAME": "COSMOS 2251 DEB", "OBJECT_ID": "1993-036MY", "EPOCH": "2025-12-03T10:35:11.637888", "MEAN_MOTION": 14.39272787, "ECCENTRICITY": 0.0078201, "INCLINATION": 74.1772, "RA_OF_ASC_NODE": 140.5943, "ARG_OF_PERICENTER": 358.5629, "MEAN_ANOMALY": 30.3822, "EPHEMERIS_TYPE": 0, "CLASSIFICATION_TYPE": "U", "NORAD_CAT_ID": 34302, "ELEMENT_SET_NO": 999, "REV_AT_EPOCH": 87587, "BSTAR": 0.0009298, "MEAN_MOTION_DOT": 2.966e-05, "MEAN_MOTION_DDOT": 0}, "tle": {"line1": "1 34302U 93036MY  25337.44110692  .00002966  00000+0  92980-3 0  9993", "line2": "2 34302  74.1772 140.5943 0078201 358.5629  30.3822 14.39272787875877"}}, "geometry": {"type": "Point", "coordinates": [-51.95459531651532, 34.49546238591066]}}]}